#dP2023  3 20 18  0  0.00000000      96 __u+U ITR00 EXT  IAC
## 2254 151200.00000000   900.00000000 60023 0.7500000000000
+  120   C06C07C08C09C10C11C12C13C14C16C19C20C21C22C23C24C25
+        C26C27C28C29C30C32C33C34C35C36C37C38C39C40C41C42C43
+        C44C45C46E01E02E03E04E05E07E08E09E10E11E12E13E14E15
+        E18E19E21E24E25E26E27E30E31E33E34E36G01G02G03G04G05
+        G06G07G08G09G10G11G12G13G14G15G16G17G18G19G20G21G22
+        G23G24G25G26G27G28G29G30G31G32J02J03J04R01R02R03R04
+        R05R07R08R09R11R12R13R14R15R16R17R18R19R20R21R22R24
+        R25  0  0  0  0  0  0  0  0  0  0  0  0  0  0  0  0
++        12 10 11  9 10  8  9 11  9 14  7  9  8  8  8 10  9
++        10  8  9  9  8  9  8  7  9  7  8  8 10  9  9  8 10
++         8  9  8  9  8  9  8  9  8  7  7  8  8  8  9  8  8
++         8  9  8  8  9  9  7  8  9  7  8  8  7  7  8  8  8
++         8  8  7  8  9  8  9  8  8  8  8  9  8  8  8  8  8
++         8  8  8  8  8  8  8  6  8  8 10  8  9  8  8  7  7
++         7  6  7  7  8  7  8  9  8  8  7  8 10  9  7  8  7
++         7  0  0  0  0  0  0  0  0  0  0  0  0  0  0  0  0
%c M  cc GPS ccc cccc cccc cccc cccc ccccc ccccc ccccc ccccc
%c cc cc ccc ccc cccc cccc cccc cccc ccccc ccccc ccccc ccccc
%f  0.0000000  0.000000000  0.00000000000  0.000000000000000
%f  0.0000000  0.000000000  0.00000000000  0.000000000000000
%i    0    0    0    0      0      0      0      0         0
%i    0    0    0    0      0      0      0      0         0
/* IAC                                ULTRA-RAPID PREDICTION
/* S/V CLOCKS ARE ALIGNED TO GNSS TIME                      
/* G:C1WC2W R:C1PC2P E:C1XC5X C:C2IC6I J:C1CC2S             
/* PCV:IGS20_2247 OL/AL:FES2004  NONE     YN ORB:CoN CLK:CoN
*  2023 03 20 22 45  0.00000000
PC06  -8788.410060  23116.059865  34162.644563   -196.488935
PC07 -17325.350305  37192.493471 -10043.531095    -49.875755
PC08   -774.586564  36346.749657 -21193.693706    516.500460
PC09   1795.822608  25723.824417  33851.337303    859.281394
PC10 -11194.400054  37567.928539 -15885.837122    -13.819416
PC11  27405.482512   4320.717616  -2872.912972    717.074658
PC12  16198.092750  13387.112672 -18325.757502    519.118312
PC13   3711.487763  38876.974008 -15401.342423    234.126556
PC14  18097.535352  -1142.594268  21218.084102     17.728114
PC16 -11340.579812  21862.803752  34415.778528    133.003764
PC19 -20105.699724  11095.275055 -15840.067328   -896.649750
PC20 -14157.753929  -6994.496878 -22990.349262    669.252170
PC21   -890.677595  22313.841102  16772.598320   -908.784271
PC22 -14805.814765  23659.770019    792.531981   -576.103390
PC23   7017.170206 -18133.317643 -20020.528492   -891.269667
PC24  17754.744068  18998.184808 -10113.248652   -270.605592
PC25  17324.276651   -935.985716 -21865.171084     91.241415
PC26   8993.805499  25736.596405   5855.043676    -94.700355
PC27  -7162.626666 -15719.583523  21892.367910    113.510716
PC28  12830.903647 -13576.625704  20734.973540     83.237198
PC29 -26870.606980   3786.736618  -6502.703849     96.177570
PC30 -23846.105319  -8722.888031  11538.407749      0.786359
PC32    776.483571 -22333.633646 -16683.932287   -595.407711
PC33  20052.698732 -11057.406460  15947.292214   -871.068310
PC34  24607.395326   8063.117464 -10450.903340    130.936730
PC35 -13360.441729  13777.625822 -20256.186954    660.911186
PC36 -17597.326049   -267.034240  21674.671292   -552.048895
PC37  -7428.519810 -25955.430380  -7104.498786   -799.914077
PC38  -7228.153725  31735.606054 -26688.207234     66.312694
PC39 -17694.792784  19946.582369  32652.879019     -2.244596
PC40 -24280.296479  33437.789915  -8968.611432    -18.091985
PC41  15110.626817 -23456.178526    -71.306101   -748.146984
PC42  13395.179791   8384.590770  23049.497425   -777.184959
PC43  27144.992514  -3200.458561   5687.164407     12.729089
PC44   7560.315619  15625.205474 -21871.706317     50.518252
PC45  -6617.727078  18401.313301  19894.091674    -74.707061
PC46 -18146.391427 -17810.270116  11537.134796    -41.251122
PE01 -15121.932900 -10295.681354  23265.256237    -13.938176
PE02  15273.813416   9736.902107 -23416.624539     27.511428
PE03  24286.578023   1549.150774  16846.300848   -661.136070
PE04 -26710.579545  12755.249803     57.530855    -82.751750
PE05   7499.062845  15280.356915  24224.223591    -84.562856
PE07  13597.029275 -19863.361429 -17212.187220    -31.382144
PE08  26747.270274 -12667.092386    166.934618    -54.309502
PE09 -13784.110384  19797.370355  17168.388607   -875.986788
PE10 -12626.401662  10546.683192 -24612.730332   -520.527480
PE11  -2065.730486  17342.983340 -23911.138518   1318.300007
PE12 -20293.659325   2837.415171 -21352.612481   -466.136836
PE13   2904.515595 -16829.970301  24177.773512    -17.873153
PE14 -27278.734892  14804.648247  -6097.906009    174.014575
PE15  20507.525717  -2505.116273  21208.958398     -8.833169
PE18  23595.397344  -6993.376633   -818.168684   -260.308235
PE19 -22690.395087  -3605.956207 -18649.583898  -2960.854395
PE21  -6490.268566 -26009.125570  12551.913463   -518.660422
PE24  -7151.597627  27873.529203   6857.782971  -1176.177584
PE25   6295.888494  26178.239230 -12289.804456   -601.711453
PE26 -16747.711838 -21132.756142  12207.138548     51.318095
PE27   6563.242247 -28209.416263  -6148.468382   -539.655978
PE30  15871.698612 -13073.598068 -21314.269759    -26.935506
PE31 -15618.824624  13763.901775  21038.886044   -519.089256
PE33 -25860.526889 -13187.155496  -5739.662537   -448.628750
PE34  25910.892876  13041.232430   5891.066086    -35.943515
PE36  16203.198227  21131.340326 -12941.444826    -29.176359
PG01  22154.513073  14387.875005   3899.924637    200.827077
PG02 -23444.003845 -10149.032823  -6166.461257   -612.837455
PG03  13006.061741   9541.204313  21001.140441   -346.160279
PG04  22111.274645   2607.191927  14577.609007     -2.470103
PG05  -6152.583800 -23032.990418 -11749.654518   -120.241919
PG06   5800.629449 -13818.442278  21983.245926    582.665080
PG07  21566.332111   3099.583457 -15075.335831    218.974159
PG08  12639.882482  10504.463401 -21003.274034   -113.887190
PG09  25108.480893  -6910.741851   5270.359903   -196.665920
PG10 -11134.465474  20375.790063 -12429.134505    -29.389979
PG11  -7557.696793 -20388.672572  15285.625395   -136.462885
PG12 -11596.010871 -12546.241969  20079.075104   -353.963442
PG13  -4279.673644 -14487.064930 -22023.320216    493.547150
PG14  13388.839113 -17823.840790 -14330.332557      1.514231
PG15 -14271.495191  -9534.454532 -20778.661133     23.338566
PG16   1608.671302  24421.675897 -10019.319501   -514.223416
PG17  21291.219576 -13574.716813   8833.214475    706.526794
PG18 -19229.458542    606.320424 -18373.995335   -188.356516
PG19  13790.004742 -15483.492646  16205.816350    292.719783
PG20  -1586.944571 -26607.003073   -960.483119    443.802393
PG21  20800.731453  16631.867520  -3932.483130    154.333156
PG22  -9888.771413  16670.862780  18527.056012    449.036158
PG23 -14679.943463   9398.909065 -19990.356849     11.751266
PG24 -22107.065831 -15114.505024  -1084.087818   -119.734781
PG25 -15222.056862   -866.735620  21427.204851    429.280926
PG26  -4580.231969  25670.561195   3852.498899    241.980605
PG27    636.464497  15772.065264 -21541.247200     76.685272
PG28  -7505.169354  13253.933977  21729.832559     48.093949
PG29 -25099.532897   2134.382173   8495.306852   -591.781656
PG30  13711.505711  -8805.841857 -20907.891634   -526.072805
PG31  -2698.133035  16411.611625  20444.305388   -212.081911
PG32 -18471.906024  15837.259227  10580.050879   -429.116967
PJ02 -29261.725650  25808.568917  20963.910279     -1.246945
PJ03 -29530.317108  15677.315234 -21092.907728      1.184873
PJ04 -23729.890789  33790.894576  -3485.356531     94.153205
PR01  18905.540638 -12606.227203  11584.396319     25.150517
PR02  14653.766670 -19739.779440  -6875.559038    -23.101688
PR03   1401.884002 -15361.396594 -20282.179272     74.545873
PR04 -12112.343980  -2413.149942 -22282.298644    180.167547
PR05 -19178.666418  11655.231708 -12084.976217    109.649135
PR07   -600.000739  14833.635417  20774.260258     52.160157
PR08  12374.589610   2272.071025  22257.910500    -69.978480
PR09  -1855.184024  19904.685014  15905.109889    110.252907
PR11  12597.940730  16005.384695 -15358.400553    -21.706147
PR12  10485.421477  -3384.537581 -22986.440985     25.815786
PR13   2898.355641 -18544.889942 -17294.795415    -33.148320
PR14  -7531.022938 -24362.325098    111.820549     24.465297
PR15 -12656.418815 -15103.296397  16209.896347     90.351962
PR16 -10438.239810   3063.199949  23074.973759     12.603114
PR17 -10585.697482 -11954.518872  19910.170314    614.184459
PR18 -22844.899580  -9041.600699   6759.178533     72.462847
PR19 -23802.143062  -2853.556285  -8710.367895   -226.019046
PR20  -9323.642900   7657.716018 -22458.832220    -89.707958
PR21  12146.571211  11928.211635 -18989.790313   -381.833799
PR22  22912.221206   9625.833766  -5768.907378     75.764055
PR24   8572.988551  -8650.144741  22427.734153    155.346525
PR25   9650.676874  12674.477690 -19912.977128     58.337929
EOF
